[{"OBJECT_NAME":"FENGYUN 1C DEB","OBJECT_ID":"1999-025KV","EPOCH":"2026-03-29T01:53:51.468288","MEAN_MOTION":14.18566292,"ECCENTRICITY":0.0022168,"INCLINATION":98.6674,"RA_OF_ASC_NODE":130.5019,"ARG_OF_PERICENTER":220.8451,"MEAN_ANOMALY":193.1051,"EPHEMERIS_TYPE":0,"CLASSIFICATION_TYPE":"U","NORAD_CAT_ID":29971,"ELEMENT_SET_NO":999,"REV_AT_EPOCH":98847,"BSTAR":0.00076909,"MEAN_MOTION_DOT":1.553e-5,"MEAN_MOTION_DDOT":0},{"OBJECT_NAME":"FENGYUN 1C DEB","OBJECT_ID":"1999-025KW","EPOCH":"2026-03-29T01:29:44.042784","MEAN_MOTION":14.67900048,"ECCENTRICITY":0.0063408,"INCLINATION":98.9144,"RA_OF_ASC_NODE":114.4688,"ARG_OF_PERICENTER":44.16,"MEAN_ANOMALY":18.8649,"EPHEMERIS_TYPE":0,"CLASSIFICATION_TYPE":"U","NORAD_CAT_ID":29972,"ELEMENT_SET_NO":999,"REV_AT_EPOCH":1043,"BSTAR":0.0012049,"MEAN_MOTION_DOT":7.048e-5,"MEAN_MOTION_DDOT":0},{"OBJECT_NAME":"FENGYUN 1C DEB","OBJECT_ID":"1999-025KX","EPOCH":"2026-03-28T18:53:23.190144","MEAN_MOTION":14.06823878,"ECCENTRICITY":0.00579737,"INCLINATION":98.8469,"RA_OF_ASC_NODE":90.9119,"ARG_OF_PERICENTER":210.9203,"MEAN_ANOMALY":326.9605,"EPHEMERIS_TYPE":0,"CLASSIFICATION_TYPE":"U","NORAD_CAT_ID":29973,"ELEMENT_SET_NO":999,"REV_AT_EPOCH":98209,"BSTAR":0.00050955786,"MEAN_MOTION_DOT":8.18e-6,"MEAN_MOTION_DDOT":0},{"OBJECT_NAME":"FENGYUN 1C DEB","OBJECT_ID":"1999-025KY","EPOCH":"2026-03-29T05:09:19.317024","MEAN_MOTION":14.15369778,"ECCENTRICITY":0.0048967,"INCLINATION":98.8839,"RA_OF_ASC_NODE":177.011,"ARG_OF_PERICENTER":138.679,"MEAN_ANOMALY":249.7076,"EPHEMERIS_TYPE":0,"CLASSIFICATION_TYPE":"U","NORAD_CAT_ID":29974,"ELEMENT_SET_NO":999,"REV_AT_EPOCH":98431,"BSTAR":0.0013055,"MEAN_MOTION_DOT":2.531e-5,"MEAN_MOTION_DDOT":0},{"OBJECT_NAME":"FENGYUN 1C DEB","OBJECT_ID":"1999-025KZ","EPOCH":"2026-03-29T02:04:57.129312","MEAN_MOTION":13.98081812,"ECCENTRICITY":0.011457,"INCLINATION":99.3218,"RA_OF_ASC_NODE":135.9198,"ARG_OF_PERICENTER":83.6007,"MEAN_ANOMALY":330.8677,"EPHEMERIS_TYPE":0,"CLASSIFICATION_TYPE":"U","NORAD_CAT_ID":29975,"ELEMENT_SET_NO":999,"REV_AT_EPOCH":97923,"BSTAR":0.00013492,"MEAN_MOTION_DOT":1.58e-6,"MEAN_MOTION_DDOT":0},{"OBJECT_NAME":"FENGYUN 1C DEB","OBJECT_ID":"1999-025LA","EPOCH":"2026-03-28T21:40:20.559936","MEAN_MOTION":13.98264563,"ECCENTRICITY":0.0267194,"INCLINATION":98.9249,"RA_OF_ASC_NODE":87.4103,"ARG_OF_PERICENTER":306.1944,"MEAN_ANOMALY":125.4624,"EPHEMERIS_TYPE":0,"CLASSIFICATION_TYPE":"U","NORAD_CAT_ID":29976,"ELEMENT_SET_NO":999,"REV_AT_EPOCH":97820,"BSTAR":0.00027472,"MEAN_MOTION_DOT":4.86e-6,"MEAN_MOTION_DDOT":0},{"OBJECT_NAME":"FENGYUN 1C DEB","OBJECT_ID":"1999-025LB","EPOCH":"2026-03-29T02:32:58.367040","MEAN_MOTION":14.05515086,"ECCENTRICITY":0.0127614,"INCLINATION":98.3922,"RA_OF_ASC_NODE":307.357,"ARG_OF_PERICENTER":315.2578,"MEAN_ANOMALY":197.0015,"EPHEMERIS_TYPE":0,"CLASSIFICATION_TYPE":"U","NORAD_CAT_ID":29977,"ELEMENT_SET_NO":999,"REV_AT_EPOCH":97854,"BSTAR":0.00079642,"MEAN_MOTION_DOT":1.352e-5,"MEAN_MOTION_DDOT":0},{"OBJECT_NAME":"FENGYUN 1C DEB","OBJECT_ID":"1999-025LC","EPOCH":"2026-03-29T03:22:06.879360","MEAN_MOTION":13.95944613,"ECCENTRICITY":0.0077099,"INCLINATION":99.0409,"RA_OF_ASC_NODE":141.7603,"ARG_OF_PERICENTER":120.0279,"MEAN_ANOMALY":299.9214,"EPHEMERIS_TYPE":0,"CLASSIFICATION_TYPE":"U","NORAD_CAT_ID":29978,"ELEMENT_SET_NO":999,"REV_AT_EPOCH":97801,"BSTAR":0.00010899,"MEAN_MOTION_DOT":1.1e-6,"MEAN_MOTION_DDOT":0},{"OBJECT_NAME":"FENGYUN 1C DEB","OBJECT_ID":"1999-025LD","EPOCH":"2026-03-29T01:21:51.738048","MEAN_MOTION":14.26227545,"ECCENTRICITY":0.0106344,"INCLINATION":98.3615,"RA_OF_ASC_NODE":111.5233,"ARG_OF_PERICENTER":210.2806,"MEAN_ANOMALY":173.4524,"EPHEMERIS_TYPE":0,"CLASSIFICATION_TYPE":"U","NORAD_CAT_ID":29979,"ELEMENT_SET_NO":999,"REV_AT_EPOCH":99589,"BSTAR":0.00036391,"MEAN_MOTION_DOT":8.84e-6,"MEAN_MOTION_DDOT":0},{"OBJECT_NAME":"FENGYUN 1C DEB","OBJECT_ID":"1999-025LE","EPOCH":"2026-03-29T05:46:17.944608","MEAN_MOTION":14.06390308,"ECCENTRICITY":0.0086628,"INCLINATION":98.5644,"RA_OF_ASC_NODE":256.6315,"ARG_OF_PERICENTER":307.0592,"MEAN_ANOMALY":229.8847,"EPHEMERIS_TYPE":0,"CLASSIFICATION_TYPE":"U","NORAD_CAT_ID":29980,"ELEMENT_SET_NO":999,"REV_AT_EPOCH":98489,"BSTAR":0.00010968,"MEAN_MOTION_DOT":1.46e-6,"MEAN_MOTION_DDOT":0},{"OBJECT_NAME":"FENGYUN 1C DEB","OBJECT_ID":"1999-025LG","EPOCH":"2026-03-29T02:04:56.047584","MEAN_MOTION":14.67805905,"ECCENTRICITY":0.0120077,"INCLINATION":99.4042,"RA_OF_ASC_NODE":289.9903,"ARG_OF_PERICENTER":324.5608,"MEAN_ANOMALY":149.1473,"EPHEMERIS_TYPE":0,"CLASSIFICATION_TYPE":"U","NORAD_CAT_ID":29982,"ELEMENT_SET_NO":999,"REV_AT_EPOCH":1843,"BSTAR":0.00046803,"MEAN_MOTION_DOT":2.906e-5,"MEAN_MOTION_DDOT":0},{"OBJECT_NAME":"FENGYUN 1C DEB","OBJECT_ID":"1999-025LK","EPOCH":"2026-03-28T22:19:49.601280","MEAN_MOTION":14.10347396,"ECCENTRICITY":0.0027515,"INCLINATION":98.7062,"RA_OF_ASC_NODE":104.6523,"ARG_OF_PERICENTER":269.6631,"MEAN_ANOMALY":158.3025,"EPHEMERIS_TYPE":0,"CLASSIFICATION_TYPE":"U","NORAD_CAT_ID":29985,"ELEMENT_SET_NO":999,"REV_AT_EPOCH":98845,"BSTAR":6.088e-5,"MEAN_MOTION_DOT":6.6e-7,"MEAN_MOTION_DDOT":0},{"OBJECT_NAME":"FENGYUN 1C DEB","OBJECT_ID":"1999-025LL","EPOCH":"2026-03-29T04:06:41.081184","MEAN_MOTION":14.30088998,"ECCENTRICITY":0.0022808,"INCLINATION":99.3865,"RA_OF_ASC_NODE":169.1169,"ARG_OF_PERICENTER":58.241,"MEAN_ANOMALY":332.1158,"EPHEMERIS_TYPE":0,"CLASSIFICATION_TYPE":"U","NORAD_CAT_ID":29986,"ELEMENT_SET_NO":999,"REV_AT_EPOCH":99028,"BSTAR":0.0017358,"MEAN_MOTION_DOT":4.451e-5,"MEAN_MOTION_DDOT":0},{"OBJECT_NAME":"FENGYUN 1C DEB","OBJECT_ID":"1999-025LM","EPOCH":"2026-03-29T04:08:25.716768","MEAN_MOTION":14.15553324,"ECCENTRICITY":0.0079339,"INCLINATION":98.8946,"RA_OF_ASC_NODE":344.87,"ARG_OF_PERICENTER":291.434,"MEAN_ANOMALY":225.9514,"EPHEMERIS_TYPE":0,"CLASSIFICATION_TYPE":"U","NORAD_CAT_ID":29987,"ELEMENT_SET_NO":999,"REV_AT_EPOCH":97878,"BSTAR":0.0023635,"MEAN_MOTION_DOT":4.723e-5,"MEAN_MOTION_DDOT":0},{"OBJECT_NAME":"FENGYUN 1C DEB","OBJECT_ID":"1999-025LN","EPOCH":"2026-03-29T05:46:08.402592","MEAN_MOTION":14.52631158,"ECCENTRICITY":0.01161,"INCLINATION":98.6931,"RA_OF_ASC_NODE":200.803,"ARG_OF_PERICENTER":55.8024,"MEAN_ANOMALY":6.5616,"EPHEMERIS_TYPE":0,"CLASSIFICATION_TYPE":"U","NORAD_CAT_ID":29988,"ELEMENT_SET_NO":999,"REV_AT_EPOCH":99612,"BSTAR":0.0021412,"MEAN_MOTION_DOT":9.536e-5,"MEAN_MOTION_DDOT":0},{"OBJECT_NAME":"FENGYUN 1C DEB","OBJECT_ID":"1999-025LP","EPOCH":"2026-03-29T05:41:35.508192","MEAN_MOTION":14.1591751,"ECCENTRICITY":0.0122308,"INCLINATION":98.6828,"RA_OF_ASC_NODE":69.2464,"ARG_OF_PERICENTER":250.846,"MEAN_ANOMALY":119.9484,"EPHEMERIS_TYPE":0,"CLASSIFICATION_TYPE":"U","NORAD_CAT_ID":29989,"ELEMENT_SET_NO":999,"REV_AT_EPOCH":99118,"BSTAR":0.00017363,"MEAN_MOTION_DOT":3.24e-6,"MEAN_MOTION_DDOT":0}]
