FENGYUN 1C DEB          
1 29971U 99025KV  26088.07906792  .00001553  00000+0  76909-3 0  9994
2 29971  98.6674 130.5019 0022168 220.8451 193.1051 14.18566292988470
FENGYUN 1C DEB          
1 29972U 99025KW  26088.06231531  .00007048  00000+0  12049-2 0  9995
2 29972  98.9144 114.4688 0063408  44.1600  18.8649 14.67900048 10437
FENGYUN 1C DEB          
1 29973U 99025KX  26087.78707396  .00000818  00000+0  50956-3 0  9999
2 29973  98.8469  90.9119 0057973 210.9203 326.9605 14.06823878982099
FENGYUN 1C DEB          
1 29974U 99025KY  26088.21480691  .00002531  00000+0  13055-2 0  9997
2 29974  98.8839 177.0110 0048967 138.6790 249.7076 14.15369778984314
FENGYUN 1C DEB          
1 29975U 99025KZ  26088.08677233  .00000158  00000+0  13492-3 0  9992
2 29975  99.3218 135.9198 0114570  83.6007 330.8677 13.98081812979239
FENGYUN 1C DEB          
1 29976U 99025LA  26087.90301574  .00000486  00000+0  27472-3 0  9992
2 29976  98.9249  87.4103 0267194 306.1944 125.4624 13.98264563978202
FENGYUN 1C DEB          
1 29977U 99025LB  26088.10623110  .00001352  00000+0  79642-3 0  9998
2 29977  98.3922 307.3570 0127614 315.2578 197.0015 14.05515086978547
FENGYUN 1C DEB          
1 29978U 99025LC  26088.14035740  .00000110  00000+0  10899-3 0  9999
2 29978  99.0409 141.7603 0077099 120.0279 299.9214 13.95944613978019
FENGYUN 1C DEB          
1 29979U 99025LD  26088.05684882  .00000884  00000+0  36391-3 0  9990
2 29979  98.3615 111.5233 0106344 210.2806 173.4524 14.26227545995897
FENGYUN 1C DEB          
1 29980U 99025LE  26088.24048547  .00000146  00000+0  10968-3 0  9998
2 29980  98.5644 256.6315 0086628 307.0592 229.8847 14.06390308984892
FENGYUN 1C DEB          
1 29982U 99025LG  26088.08675981  .00002906  00000+0  46803-3 0  9993
2 29982  99.4042 289.9903 0120077 324.5608 149.1473 14.67805905 18435
FENGYUN 1C DEB          
1 29985U 99025LK  26087.93043520  .00000066  00000+0  60880-4 0  9994
2 29985  98.7062 104.6523 0027515 269.6631 158.3025 14.10347396988457
FENGYUN 1C DEB          
1 29986U 99025LL  26088.17130881  .00004451  00000+0  17358-2 0  9991
2 29986  99.3865 169.1169 0022808  58.2410 332.1158 14.30088998990280
FENGYUN 1C DEB          
1 29987U 99025LM  26088.17251987  .00004723  00000+0  23635-2 0  9990
2 29987  98.8946 344.8700 0079339 291.4340 225.9514 14.15553324978781
FENGYUN 1C DEB          
1 29988U 99025LN  26088.24037503  .00009536  00000+0  21412-2 0  9993
2 29988  98.6931 200.8030 0116100  55.8024   6.5616 14.52631158996127
FENGYUN 1C DEB          
1 29989U 99025LP  26088.23721653  .00000324  00000+0  17363-3 0  9996
2 29989  98.6828  69.2464 0122308 250.8460 119.9484 14.15917510991180
